CCSDS_OMM_VERS = 2.0
CREATION_DATE  = 
ORIGINATOR     = 

OBJECT_NAME    = UNKNOWN
OBJECT_ID      = 
CENTER_NAME    = EARTH
REF_FRAME      = TEME
TIME_SYSTEM    = UTC
MEAN_ELEMENT_THEORY = SGP/SGP4

EPOCH          = 2026-02-18T04:59:43.531872
MEAN_MOTION    = 14.36058122
ECCENTRICITY   = .0359319
INCLINATION    = 65.6746
RA_OF_ASC_NODE = 336.5816
ARG_OF_PERICENTER = 41.3039
MEAN_ANOMALY   = 102.7949

EPHEMERIS_TYPE = 0
CLASSIFICATION_TYPE = U
NORAD_CAT_ID   = 87764
ELEMENT_SET_NO = 999
REV_AT_EPOCH   = 62880
BSTAR          = .15493E-2
MEAN_MOTION_DOT = .9399E-4
MEAN_MOTION_DDOT = 0

CCSDS_OMM_VERS = 2.0
CREATION_DATE  = 
ORIGINATOR     = 

OBJECT_NAME    = UNKNOWN
OBJECT_ID      = 
CENTER_NAME    = EARTH
REF_FRAME      = TEME
TIME_SYSTEM    = UTC
MEAN_ELEMENT_THEORY = SGP/SGP4

EPOCH          = 2026-02-17T18:58:48.395424
MEAN_MOTION    = 13.19537216
ECCENTRICITY   = .011949
INCLINATION    = 100.7430
RA_OF_ASC_NODE = 251.4132
ARG_OF_PERICENTER = 210.3082
MEAN_ANOMALY   = 149.1084

EPHEMERIS_TYPE = 0
CLASSIFICATION_TYPE = U
NORAD_CAT_ID   = 87771
ELEMENT_SET_NO = 999
REV_AT_EPOCH   = 54393
BSTAR          = .28496E-3
MEAN_MOTION_DOT = .71E-6
MEAN_MOTION_DDOT = 0

CCSDS_OMM_VERS = 2.0
CREATION_DATE  = 
ORIGINATOR     = 

OBJECT_NAME    = UNKNOWN
OBJECT_ID      = 
CENTER_NAME    = EARTH
REF_FRAME      = TEME
TIME_SYSTEM    = UTC
MEAN_ELEMENT_THEORY = SGP/SGP4

EPOCH          = 2026-02-14T14:40:57.976032
MEAN_MOTION    = 13.00772457
ECCENTRICITY   = .0041012
INCLINATION    = 102.3594
RA_OF_ASC_NODE = 290.6874
ARG_OF_PERICENTER = 71.7154
MEAN_ANOMALY   = 288.8399

EPHEMERIS_TYPE = 0
CLASSIFICATION_TYPE = U
NORAD_CAT_ID   = 87782
ELEMENT_SET_NO = 999
REV_AT_EPOCH   = 57629
BSTAR          = .10008E-1
MEAN_MOTION_DOT = .3004E-4
MEAN_MOTION_DDOT = 0

CCSDS_OMM_VERS = 2.0
CREATION_DATE  = 
ORIGINATOR     = 

OBJECT_NAME    = UNKNOWN
OBJECT_ID      = 
CENTER_NAME    = EARTH
REF_FRAME      = TEME
TIME_SYSTEM    = UTC
MEAN_ELEMENT_THEORY = SGP/SGP4

EPOCH          = 2026-02-05T00:25:39.808704
MEAN_MOTION    = 13.16820758
ECCENTRICITY   = .0245138
INCLINATION    = 99.6587
RA_OF_ASC_NODE = 150.6017
ARG_OF_PERICENTER = 236.3526
MEAN_ANOMALY   = 121.3988

EPHEMERIS_TYPE = 0
CLASSIFICATION_TYPE = U
NORAD_CAT_ID   = 87843
ELEMENT_SET_NO = 999
REV_AT_EPOCH   = 57130
BSTAR          = .56487E-2
MEAN_MOTION_DOT = .2489E-4
MEAN_MOTION_DDOT = 0

CCSDS_OMM_VERS = 2.0
CREATION_DATE  = 
ORIGINATOR     = 

OBJECT_NAME    = UNKNOWN
OBJECT_ID      = 
CENTER_NAME    = EARTH
REF_FRAME      = TEME
TIME_SYSTEM    = UTC
MEAN_ELEMENT_THEORY = SGP/SGP4

EPOCH          = 2026-02-13T07:50:41.826336
MEAN_MOTION    = 12.89142365
ECCENTRICITY   = .0577938
INCLINATION    = 98.8654
RA_OF_ASC_NODE = 354.5744
ARG_OF_PERICENTER = 109.3780
MEAN_ANOMALY   = 257.0708

EPHEMERIS_TYPE = 0
CLASSIFICATION_TYPE = U
NORAD_CAT_ID   = 87845
ELEMENT_SET_NO = 999
REV_AT_EPOCH   = 57327
BSTAR          = .50348E-2
MEAN_MOTION_DOT = .2697E-4
MEAN_MOTION_DDOT = 0

CCSDS_OMM_VERS = 2.0
CREATION_DATE  = 
ORIGINATOR     = 

OBJECT_NAME    = UNKNOWN
OBJECT_ID      = 
CENTER_NAME    = EARTH
REF_FRAME      = TEME
TIME_SYSTEM    = UTC
MEAN_ELEMENT_THEORY = SGP/SGP4

EPOCH          = 2026-02-14T19:04:39.593280
MEAN_MOTION    = 14.41338221
ECCENTRICITY   = .0035241
INCLINATION    = 99.1582
RA_OF_ASC_NODE = 174.8129
ARG_OF_PERICENTER = 80.0236
MEAN_ANOMALY   = 280.4925

EPHEMERIS_TYPE = 0
CLASSIFICATION_TYPE = U
NORAD_CAT_ID   = 87878
ELEMENT_SET_NO = 999
REV_AT_EPOCH   = 62052
BSTAR          = .93693E-3
MEAN_MOTION_DOT = .3006E-4
MEAN_MOTION_DDOT = 0

CCSDS_OMM_VERS = 2.0
CREATION_DATE  = 
ORIGINATOR     = 

OBJECT_NAME    = UNKNOWN
OBJECT_ID      = 
CENTER_NAME    = EARTH
REF_FRAME      = TEME
TIME_SYSTEM    = UTC
MEAN_ELEMENT_THEORY = SGP/SGP4

EPOCH          = 2026-02-17T12:56:35.049984
MEAN_MOTION    = 14.06034589
ECCENTRICITY   = .0153186
INCLINATION    = 98.7316
RA_OF_ASC_NODE = 155.0440
ARG_OF_PERICENTER = 240.0628
MEAN_ANOMALY   = 118.5255

EPHEMERIS_TYPE = 0
CLASSIFICATION_TYPE = U
NORAD_CAT_ID   = 87884
ELEMENT_SET_NO = 999
REV_AT_EPOCH   = 62775
BSTAR          = .67292E-4
MEAN_MOTION_DOT = .79E-6
MEAN_MOTION_DDOT = 0

CCSDS_OMM_VERS = 2.0
CREATION_DATE  = 
ORIGINATOR     = 

OBJECT_NAME    = UNKNOWN
OBJECT_ID      = 
CENTER_NAME    = EARTH
REF_FRAME      = TEME
TIME_SYSTEM    = UTC
MEAN_ELEMENT_THEORY = SGP/SGP4

EPOCH          = 2026-02-12T22:57:34.365600
MEAN_MOTION    = 12.35546533
ECCENTRICITY   = .0892262
INCLINATION    = 28.6243
RA_OF_ASC_NODE = 358.7144
ARG_OF_PERICENTER = 103.3584
MEAN_ANOMALY   = 266.7867

EPHEMERIS_TYPE = 0
CLASSIFICATION_TYPE = U
NORAD_CAT_ID   = 87991
ELEMENT_SET_NO = 999
REV_AT_EPOCH   = 53069
BSTAR          = .876E-2
MEAN_MOTION_DOT = .4469E-4
MEAN_MOTION_DDOT = 0

CCSDS_OMM_VERS = 2.0
CREATION_DATE  = 
ORIGINATOR     = 

OBJECT_NAME    = UNKNOWN
OBJECT_ID      = 
CENTER_NAME    = EARTH
REF_FRAME      = TEME
TIME_SYSTEM    = UTC
MEAN_ELEMENT_THEORY = SGP/SGP4

EPOCH          = 2026-02-16T23:23:49.017696
MEAN_MOTION    = 14.46096137
ECCENTRICITY   = .0190251
INCLINATION    = 97.8403
RA_OF_ASC_NODE = 237.1781
ARG_OF_PERICENTER = 187.4097
MEAN_ANOMALY   = 172.4278

EPHEMERIS_TYPE = 0
CLASSIFICATION_TYPE = U
NORAD_CAT_ID   = 89005
ELEMENT_SET_NO = 999
REV_AT_EPOCH   = 54366
BSTAR          = .11275E-2
MEAN_MOTION_DOT = .4995E-4
MEAN_MOTION_DDOT = 0

CCSDS_OMM_VERS = 2.0
CREATION_DATE  = 
ORIGINATOR     = 

OBJECT_NAME    = UNKNOWN
OBJECT_ID      = 
CENTER_NAME    = EARTH
REF_FRAME      = TEME
TIME_SYSTEM    = UTC
MEAN_ELEMENT_THEORY = SGP/SGP4

EPOCH          = 2026-02-04T23:46:31.808352
MEAN_MOTION    = 14.95225167
ECCENTRICITY   = .0022937
INCLINATION    = 98.0469
RA_OF_ASC_NODE = 301.6350
ARG_OF_PERICENTER = 142.0484
MEAN_ANOMALY   = 218.2357

EPHEMERIS_TYPE = 0
CLASSIFICATION_TYPE = U
NORAD_CAT_ID   = 89029
ELEMENT_SET_NO = 999
REV_AT_EPOCH   = 65918
BSTAR          = .75403E-3
MEAN_MOTION_DOT = .8279E-4
MEAN_MOTION_DDOT = 0

CCSDS_OMM_VERS = 2.0
CREATION_DATE  = 
ORIGINATOR     = 

OBJECT_NAME    = UNKNOWN
OBJECT_ID      = 
CENTER_NAME    = EARTH
REF_FRAME      = TEME
TIME_SYSTEM    = UTC
MEAN_ELEMENT_THEORY = SGP/SGP4

EPOCH          = 2026-02-18T01:47:14.904384
MEAN_MOTION    = 13.04028558
ECCENTRICITY   = .0147277
INCLINATION    = 100.4692
RA_OF_ASC_NODE = 348.6574
ARG_OF_PERICENTER = 318.2757
MEAN_ANOMALY   = 40.7192

EPHEMERIS_TYPE = 0
CLASSIFICATION_TYPE = U
NORAD_CAT_ID   = 89101
ELEMENT_SET_NO = 999
REV_AT_EPOCH   = 56362
BSTAR          = -.41318E-3
MEAN_MOTION_DOT = -.183E-5
MEAN_MOTION_DDOT = 0

CCSDS_OMM_VERS = 2.0
CREATION_DATE  = 
ORIGINATOR     = 

OBJECT_NAME    = UNKNOWN
OBJECT_ID      = 
CENTER_NAME    = EARTH
REF_FRAME      = TEME
TIME_SYSTEM    = UTC
MEAN_ELEMENT_THEORY = SGP/SGP4

EPOCH          = 2026-02-16T19:27:12.119616
MEAN_MOTION    = 8.87777207
ECCENTRICITY   = .2930246
INCLINATION    = 63.4386
RA_OF_ASC_NODE = 333.6074
ARG_OF_PERICENTER = 319.6670
MEAN_ANOMALY   = 21.9483

EPHEMERIS_TYPE = 0
CLASSIFICATION_TYPE = U
NORAD_CAT_ID   = 89132
ELEMENT_SET_NO = 999
REV_AT_EPOCH   = 33097
BSTAR          = .77573E-2
MEAN_MOTION_DOT = .6008E-4
MEAN_MOTION_DDOT = 0

