UNKNOWN                 
1 87764U          26049.20814273  .00009399  00000+0  15493-2 0  9993
2 87764  65.6746 336.5816 0359319  41.3039 102.7949 14.36058122628808
UNKNOWN                 
1 87771U          26048.79083791  .00000071  00000+0  28496-3 0  9993
2 87771 100.7430 251.4132 0119490 210.3082 149.1084 13.19537216543934
UNKNOWN                 
1 87782U          26045.61178213  .00003004  00000+0  10008-1 0  9994
2 87782 102.3594 290.6874 0041012  71.7154 288.8399 13.00772457576299
UNKNOWN                 
1 87843U          26036.01782186  .00002489  00000+0  56487-2 0  9994
2 87843  99.6587 150.6017 0245138 236.3526 121.3988 13.16820758571305
UNKNOWN                 
1 87845U          26044.32687299  .00002697  00000+0  50348-2 0  9999
2 87845  98.8654 354.5744 0577938 109.3780 257.0708 12.89142365573277
UNKNOWN                 
1 87878U          26045.79490270  .00003006  00000+0  93693-3 0  9994
2 87878  99.1582 174.8129 0035241  80.0236 280.4925 14.41338221620524
UNKNOWN                 
1 87884U          26048.53929456  .00000079  00000+0  67292-4 0  9993
2 87884  98.7316 155.0440 0153186 240.0628 118.5255 14.06034589627750
UNKNOWN                 
1 87991U          26043.95664775  .00004469  00000+0  87600-2 0  9993
2 87991  28.6243 358.7144 0892262 103.3584 266.7867 12.35546533530698
UNKNOWN                 
1 89005U          26047.97487289  .00004995  00000+0  11275-2 0  9999
2 89005  97.8403 237.1781 0190251 187.4097 172.4278 14.46096137543664
UNKNOWN                 
1 89029U          26035.99064593  .00008279  00000+0  75403-3 0  9996
2 89029  98.0469 301.6350 0022937 142.0484 218.2357 14.95225167659189
UNKNOWN                 
1 89101U          26049.07447806 -.00000183  00000+0 -41318-3 0  9999
2 89101 100.4692 348.6574 0147277 318.2757  40.7192 13.04028558563622
UNKNOWN                 
1 89132U          26047.81055694  .00006008  00000+0  77573-2 0  9994
2 89132  63.4386 333.6074 2930246 319.6670  21.9483  8.87777207330971
